TIANQI-15               
1 49027U 21065B   26068.81163741  .00006722  00000+0  41179-3 0  9990
2 49027  34.9979 108.2420 0007067 250.7766 109.2180 15.09508085254244
STARLINK-4692           
1 53603U 22104R   26068.76254912 -.00001830  00000+0 -96908-4 0  9993
2 53603  53.2164 238.9696 0001328  85.9197 274.1947 15.08840597195697
